H1 CPF 01  gfz 2022 01 03 13  5032 tandemx   
H2 1003001  6202 36605    2022 01 03 12 59 42 2022 01 08 00 00 42   120 1 1  0 0 0
H9
10 0 59584  39582.000000  0   -1143446.155    825725.596  -6749363.538
10 0 59584  39702.000000  0   -1339211.826   1699716.589  -6546707.429
10 0 59584  39822.000000  0   -1496710.067   2547353.589  -6229825.522
10 0 59584  39942.000000  0   -1613791.467   3353234.095  -5804175.797
10 0 59584  40062.000000  0   -1689262.825   4102620.728  -5277105.351
10 0 59584  40182.000000  0   -1722895.702   4781711.338  -4657735.268
10 0 59584  40302.000000  0   -1715415.322   5377898.440  -3956813.726
10 0 59584  40422.000000  0   -1668468.734   5880010.710  -3186538.128
10 0 59584  40542.000000  0   -1584572.564   6278531.496  -2360349.995
10 0 59584  40662.000000  0   -1467042.130   6565791.078  -1492704.692
10 0 59584  40782.000000  0   -1319902.426   6736125.475   -598818.052
10 0 59584  40902.000000  0   -1147783.354   6785998.327    305602.879
10 0 59584  41022.000000  0    -955800.916   6714083.176   1204642.985
10 0 59584  41142.000000  0    -749427.993   6521299.459   2082470.369
10 0 59584  41262.000000  0    -534357.678   6210800.167   2923624.614
10 0 59584  41382.000000  0    -316363.083   5787916.004   3713295.462
10 0 59584  41502.000000  0    -101157.847   5260058.319   4437588.288
10 0 59584  41622.000000  0     105740.163   4636580.634   5083775.199
10 0 59584  41742.000000  0     299139.781   3928598.567   5640516.537
10 0 59584  41862.000000  0     474296.669   3148784.831   6098055.512
10 0 59584  41982.000000  0     627020.804   2311133.757   6448385.507
10 0 59584  42102.000000  0     753769.419   1430704.363   6685383.634
10 0 59584  42222.000000  0     851723.916    523345.827   6804911.904
10 0 59584  42342.000000  0     918849.224   -394588.229   6804884.015
10 0 59584  42462.000000  0     953934.711  -1306533.360   6685300.593
10 0 59584  42582.000000  0     956615.951  -2196013.131   6448249.603
10 0 59584  42702.000000  0     927377.035  -3046936.945   6097872.776
10 0 59584  42822.000000  0     867532.852  -3843893.474   5640296.592
10 0 59584  42942.000000  0     779192.557  -4572431.313   5083529.148
10 0 59584  43062.000000  0     665205.552  -5219324.860   4437326.835
10 0 59584  43182.000000  0     529089.838  -5772822.890   3713029.900
10 0 59584  43302.000000  0     374943.533  -6222872.618   2923366.234
10 0 59584  43422.000000  0     207341.946  -6561312.567   2082227.492
10 0 59584  43542.000000  0      31222.231  -6782029.232   1204422.262
10 0 59584  43662.000000  0    -148240.884  -6881076.595    305410.800
10 0 59584  43782.000000  0    -325766.627  -6856751.966   -598976.909
10 0 59584  43902.000000  0    -496101.802  -6709624.292  -1492829.904
10 0 59584  44022.000000  0    -654153.281  -6442516.420  -2360444.138
10 0 59584  44142.000000  0    -795116.501  -6060443.944  -3186604.399
10 0 59584  44262.000000  0    -914596.989  -5570511.106  -3956855.547
10 0 59584  44382.000000  0   -1008721.538  -4981765.876  -4657756.387
10 0 59584  44502.000000  0   -1074236.301  -4305019.930  -5277110.065
10 0 59584  44622.000000  0   -1108590.075  -3552639.386  -5804168.997
10 0 59584  44742.000000  0   -1110000.817  -2738310.617  -6229811.903
10 0 59584  44862.000000  0   -1077504.537  -1876785.935  -6546690.755
10 0 59584  44982.000000  0   -1010986.011   -983615.019  -6749345.969
10 0 59584  45102.000000  0    -911191.296    -74866.924  -6834290.883
10 0 59584  45222.000000  0    -779720.980    833153.956  -6800064.634
10 0 59584  45342.000000  0    -619004.648   1724192.683  -6647253.996
10 0 59584  45462.000000  0    -432257.796   2582327.119  -6378484.501
10 0 59584  45582.000000  0    -223420.957   3392246.393  -5998381.674
10 0 59584  45702.000000  0       2919.051   4139522.035  -5513500.495
10 0 59584  45822.000000  0     241623.706   4810864.962  -4932222.514
10 0 59584  45942.000000  0     487111.457   5394366.345  -4264622.998
10 0 59584  46062.000000  0     733479.353   5879717.435  -3522306.516
10 0 59584  46182.000000  0     974635.146   6258402.267  -2718213.225
10 0 59584  46302.000000  0    1204437.125   6523859.616  -1866398.585
10 0 59584  46422.000000  0    1416838.646   6671609.638   -981788.734
10 0 59584  46542.000000  0    1606033.962   6699340.711    -79915.859
10 0 59584  46662.000000  0    1766601.260   6606952.575    823360.913
10 0 59584  46782.000000  0    1893638.449   6396555.285   1712141.830
10 0 59584  46902.000000  0    1982889.402   6072424.480   2570774.461
10 0 59584  47022.000000  0    2030857.119   5640913.446   3384137.173
10 0 59584  47142.000000  0    2034900.746   5110324.473   4137913.094
10 0 59584  47262.000000  0    1993313.071   4490741.163   4818847.740
10 0 59584  47382.000000  0    1905377.982   3793825.251   5414984.578
10 0 59584  47502.000000  0    1771405.365   3032587.171   5915870.614
10 0 59584  47622.000000  0    1592745.106   2221137.097   6312735.402
10 0 59584  47742.000000  0    1371778.272   1374417.424   6598639.956
10 0 59584  47862.000000  0    1111886.305    507923.084   6768591.330
10 0 59584  47982.000000  0     817399.115   -362582.277   6819623.214
10 0 59584  48102.000000  0     493522.824  -1221351.874   6750845.963
10 0 59584  48222.000000  0     146247.497  -2052940.970   6563461.582
10 0 59584  48342.000000  0    -217763.736  -2842484.644   6260743.943
10 0 59584  48462.000000  0    -591301.514  -3575964.926   5847983.539
10 0 59584  48582.000000  0    -966750.070  -4240460.064   5332398.537
10 0 59584  48702.000000  0   -1336239.299  -4824375.236   4723016.746
10 0 59584  48822.000000  0   -1691808.249  -5317653.255   4030525.528
10 0 59584  48942.000000  0   -2025574.831  -5711958.128   3267087.813
10 0 59584  49062.000000  0   -2329908.202  -6000824.718   2446128.705
10 0 59584  49182.000000  0   -2597599.683  -6179771.908   1582097.676
10 0 59584  49302.000000  0   -2822027.586  -6246377.620    690209.687
10 0 59584  49422.000000  0   -2997312.133  -6200312.856   -213829.656
10 0 59584  49542.000000  0   -3118456.428  -6043333.626  -1114109.090
10 0 59584  49662.000000  0   -3181470.065  -5779230.533  -1994800.691
10 0 59584  49782.000000  0   -3183472.249  -5413737.360  -2840446.064
10 0 59584  49902.000000  0   -3122771.625  -4954401.271  -3636233.705
10 0 59584  50022.000000  0   -2998920.458  -4410418.247  -4368260.523
10 0 59584  50142.000000  0   -2812742.956  -3792439.975  -5023772.229
10 0 59584  50262.000000  0   -2566338.141  -3112357.307  -5591379.654
10 0 59584  50382.000000  0   -2263057.734  -2383065.193  -6061248.047
10 0 59584  50502.000000  0   -1907458.947  -1618214.351  -6425257.477
10 0 59584  50622.000000  0   -1505233.295   -831954.413  -6677131.801
10 0 59584  50742.000000  0   -1063114.574    -38674.129  -6812535.216
10 0 59584  50862.000000  0    -588767.410    747256.582  -6829138.055
10 0 59584  50982.000000  0     -90656.548   1511740.172  -6726652.656
10 0 59584  51102.000000  0     422099.565   2241197.477  -6506837.703
10 0 59584  51222.000000  0     939891.080   2922803.976  -6173473.714
10 0 59584  51342.000000  0    1452793.461   3544713.187  -5732305.050
10 0 59584  51462.000000  0    1950753.303   4096262.269  -5190950.071
10 0 59584  51582.000000  0    2423782.532   4568157.707  -4558781.472
10 0 59584  51702.000000  0    2862157.276   4952638.687  -3846775.016
10 0 59584  51822.000000  0    3256616.905   5243613.013  -3067327.932
10 0 59584  51942.000000  0    3598560.386   5436763.207  -2234049.946
10 0 59584  52062.000000  0    3880234.621   5529618.724  -1361528.138
10 0 59584  52182.000000  0    4094909.426   5521592.718   -465070.589
10 0 59584  52302.000000  0    4237034.749   5413981.324    439567.081
10 0 59584  52422.000000  0    4302376.079   5209924.125   1336466.003
10 0 59584  52542.000000  0    4288123.016   4914326.990   2209831.563
10 0 59584  52662.000000  0    4192971.351   4533752.284   3044280.095
10 0 59584  52782.000000  0    4017172.388   4076272.771   3825119.693
10 0 59584  52902.000000  0    3762549.757   3551297.018   4538613.088
10 0 59584  53022.000000  0    3432486.653   2969371.833   5172221.908
10 0 59584  53142.000000  0    3031878.134   2341964.803   5714829.213
10 0 59584  53262.000000  0    2567053.764   1681232.357   6156928.674
10 0 59584  53382.000000  0    2045674.430    999780.538   6490785.918
10 0 59584  53502.000000  0    1476602.284    310422.035   6710567.164
10 0 59584  53622.000000  0     869747.485   -374063.734   6812435.374
10 0 59584  53742.000000  0     235894.548  -1041167.225   6794614.404
10 0 59584  53862.000000  0    -413489.736  -1678877.576   6657417.635
10 0 59584  53982.000000  0   -1066463.747  -2275898.693   6403242.084
10 0 59584  54102.000000  0   -1710829.472  -2821849.216   6036527.442
10 0 59584  54222.000000  0   -2334357.736  -3307443.436   5563683.784
10 0 59584  54342.000000  0   -2925020.889  -3724652.873   4992987.763
10 0 59584  54462.000000  0   -3471229.144  -4066844.075   4334443.912
10 0 59584  54582.000000  0   -3962062.023  -4328888.403   3599612.582
10 0 59584  54702.000000  0   -4387490.055  -4507242.687   2801409.190
10 0 59584  54822.000000  0   -4738583.503  -4599999.376   1953877.906
10 0 59584  54942.000000  0   -5007703.449  -4606903.929   1071941.124
10 0 59584  55062.000000  0   -5188668.946  -4529337.819    171130.734
10 0 59584  55182.000000  0   -5276896.524  -4370268.256   -732693.231
10 0 59584  55302.000000  0   -5269508.112  -4134165.642  -1623631.207
10 0 59584  55422.000000  0   -5165403.609  -3826889.779  -2486033.397
10 0 59584  55542.000000  0   -4965296.230  -3455548.654  -3304781.050
10 0 59584  55662.000000  0   -4671711.734  -3028335.055  -4065554.309
10 0 59584  55782.000000  0   -4288952.371  -2554345.014  -4755082.330
10 0 59584  55902.000000  0   -3823025.990  -2043382.398  -5361370.846
10 0 59584  56022.000000  0   -3281543.335  -1505754.930  -5873903.389
99
